{"fetched_at":"2026-07-16T17:47:06.936Z","source":"https://celestrak.org/NORAD/elements/gp.php?NAME=WORLDVIEW&FORMAT=JSON","constellation":"worldview","records":[{"OBJECT_NAME":"WORLDVIEW-1 (WV-1)","OBJECT_ID":"2007-041A","EPOCH":"2026-07-16T07:19:31.321632","CLASSIFICATION_TYPE":"U","MEAN_MOTION":15.245654,"ECCENTRICITY":0.00016309,"INCLINATION":97.3907,"RA_OF_ASC_NODE":316.6406,"ARG_OF_PERICENTER":201.2495,"MEAN_ANOMALY":158.8676,"EPHEMERIS_TYPE":0,"NORAD_CAT_ID":32060,"ELEMENT_SET_NO":999,"REV_AT_EPOCH":4731,"BSTAR":0.00012508486,"MEAN_MOTION_DOT":0.00003009,"MEAN_MOTION_DDOT":0},{"OBJECT_NAME":"WORLDVIEW-2 (WV-2)","OBJECT_ID":"2009-055A","EPOCH":"2026-07-16T06:00:59.689440","CLASSIFICATION_TYPE":"U","MEAN_MOTION":14.37907096,"ECCENTRICITY":0.00053537,"INCLINATION":98.4756,"RA_OF_ASC_NODE":270.3046,"ARG_OF_PERICENTER":127.2925,"MEAN_ANOMALY":232.8751,"EPHEMERIS_TYPE":0,"NORAD_CAT_ID":35946,"ELEMENT_SET_NO":999,"REV_AT_EPOCH":87982,"BSTAR":0.000028708983,"MEAN_MOTION_DOT":4.3e-7,"MEAN_MOTION_DDOT":0},{"OBJECT_NAME":"WORLDVIEW-3 (WV-3)","OBJECT_ID":"2014-048A","EPOCH":"2026-07-16T06:36:18.743616","CLASSIFICATION_TYPE":"U","MEAN_MOTION":14.85065123,"ECCENTRICITY":0.00013831,"INCLINATION":97.8556,"RA_OF_ASC_NODE":271.7054,"ARG_OF_PERICENTER":154.3041,"MEAN_ANOMALY":205.8242,"EPHEMERIS_TYPE":0,"NORAD_CAT_ID":40115,"ELEMENT_SET_NO":999,"REV_AT_EPOCH":64622,"BSTAR":0.000048506757,"MEAN_MOTION_DOT":0.00000361,"MEAN_MOTION_DDOT":0}]}
